[{"OBJECT_NAME":"ONEWEB-0035","OBJECT_ID":"2020-008N","EPOCH":"2025-10-14T03:15:54.950688","MEAN_MOTION":13.10369495,"ECCENTRICITY":0.000171,"INCLINATION":87.8746,"RA_OF_ASC_NODE":85.3426,"ARG_OF_PERICENTER":96.6322,"MEAN_ANOMALY":263.5,"EPHEMERIS_TYPE":0,"CLASSIFICATION_TYPE":"U","NORAD_CAT_ID":45143,"ELEMENT_SET_NO":999,"REV_AT_EPOCH":27571,"BSTAR":0.0011718611,"MEAN_MOTION_DOT":4.22e-6,"MEAN_MOTION_DDOT":0},{"OBJECT_NAME":"ONEWEB-0036","OBJECT_ID":"2020-008P","EPOCH":"2025-10-13T21:31:42.868416","MEAN_MOTION":13.10372452,"ECCENTRICITY":0.00015646,"INCLINATION":87.8756,"RA_OF_ASC_NODE":85.3426,"ARG_OF_PERICENTER":84.7154,"MEAN_ANOMALY":275.4152,"EPHEMERIS_TYPE":0,"CLASSIFICATION_TYPE":"U","NORAD_CAT_ID":45144,"ELEMENT_SET_NO":999,"REV_AT_EPOCH":27611,"BSTAR":0.0017862317,"MEAN_MOTION_DOT":6.36e-6,"MEAN_MOTION_DDOT":0},{"OBJECT_NAME":"ONEWEB-0038","OBJECT_ID":"2020-008Q","EPOCH":"2025-10-14T02:40:59.979648","MEAN_MOTION":13.11399114,"ECCENTRICITY":0.00015511,"INCLINATION":87.8821,"RA_OF_ASC_NODE":70.0676,"ARG_OF_PERICENTER":163.4179,"MEAN_ANOMALY":196.7,"EPHEMERIS_TYPE":0,"CLASSIFICATION_TYPE":"U","NORAD_CAT_ID":45145,"ELEMENT_SET_NO":999,"REV_AT_EPOCH":27807,"BSTAR":0.0090738843,"MEAN_MOTION_DOT":3.229e-5,"MEAN_MOTION_DDOT":0},{"OBJECT_NAME":"ONEWEB-0039","OBJECT_ID":"2020-008R","EPOCH":"2025-10-14T04:26:26.109024","MEAN_MOTION":13.10376684,"ECCENTRICITY":0.00011417,"INCLINATION":87.876,"RA_OF_ASC_NODE":85.3008,"ARG_OF_PERICENTER":84.1605,"MEAN_ANOMALY":275.9652,"EPHEMERIS_TYPE":0,"CLASSIFICATION_TYPE":"U","NORAD_CAT_ID":45146,"ELEMENT_SET_NO":999,"REV_AT_EPOCH":27594,"BSTAR":0.00051626649,"MEAN_MOTION_DOT":1.93e-6,"MEAN_MOTION_DDOT":0},{"OBJECT_NAME":"ONEWEB-0040","OBJECT_ID":"2020-008S","EPOCH":"2025-10-14T06:06:48.460320","MEAN_MOTION":13.10375059,"ECCENTRICITY":0.00015519,"INCLINATION":87.8754,"RA_OF_ASC_NODE":85.3165,"ARG_OF_PERICENTER":92.4837,"MEAN_ANOMALY":267.6468,"EPHEMERIS_TYPE":0,"CLASSIFICATION_TYPE":"U","NORAD_CAT_ID":45147,"ELEMENT_SET_NO":999,"REV_AT_EPOCH":27565,"BSTAR":-0.00052517382,"MEAN_MOTION_DOT":-1.71e-6,"MEAN_MOTION_DDOT":0},{"OBJECT_NAME":"ONEWEB-0043","OBJECT_ID":"2020-008U","EPOCH":"2025-10-14T06:09:11.029824","MEAN_MOTION":13.10377646,"ECCENTRICITY":0.0001369,"INCLINATION":87.8751,"RA_OF_ASC_NODE":85.2979,"ARG_OF_PERICENTER":76.8624,"MEAN_ANOMALY":283.2656,"EPHEMERIS_TYPE":0,"CLASSIFICATION_TYPE":"U","NORAD_CAT_ID":45149,"ELEMENT_SET_NO":999,"REV_AT_EPOCH":27597,"BSTAR":-0.00022478532,"MEAN_MOTION_DOT":-6.6e-7,"MEAN_MOTION_DDOT":0},{"OBJECT_NAME":"ONEWEB-0044","OBJECT_ID":"2020-008V","EPOCH":"2025-10-14T04:59:53.964672","MEAN_MOTION":13.10370801,"ECCENTRICITY":0.00014198,"INCLINATION":87.8755,"RA_OF_ASC_NODE":85.2985,"ARG_OF_PERICENTER":84.0859,"MEAN_ANOMALY":276.043,"EPHEMERIS_TYPE":0,"CLASSIFICATION_TYPE":"U","NORAD_CAT_ID":45150,"ELEMENT_SET_NO":999,"REV_AT_EPOCH":27626,"BSTAR":0.0012273076,"MEAN_MOTION_DOT":4.41e-6,"MEAN_MOTION_DDOT":0},{"OBJECT_NAME":"ONEWEB-0045","OBJECT_ID":"2020-008W","EPOCH":"2025-10-14T02:33:26.424576","MEAN_MOTION":13.11412371,"ECCENTRICITY":0.00015282,"INCLINATION":87.8829,"RA_OF_ASC_NODE":70.0455,"ARG_OF_PERICENTER":97.2638,"MEAN_ANOMALY":262.8663,"EPHEMERIS_TYPE":0,"CLASSIFICATION_TYPE":"U","NORAD_CAT_ID":45151,"ELEMENT_SET_NO":999,"REV_AT_EPOCH":27815,"BSTAR":-0.0010414405,"MEAN_MOTION_DOT":-3.56e-6,"MEAN_MOTION_DDOT":0},{"OBJECT_NAME":"ONEWEB-0047","OBJECT_ID":"2020-008X","EPOCH":"2025-10-14T04:50:20.614272","MEAN_MOTION":13.10371592,"ECCENTRICITY":0.00015326,"INCLINATION":87.8746,"RA_OF_ASC_NODE":85.3102,"ARG_OF_PERICENTER":90.4117,"MEAN_ANOMALY":269.7186,"EPHEMERIS_TYPE":0,"CLASSIFICATION_TYPE":"U","NORAD_CAT_ID":45152,"ELEMENT_SET_NO":999,"REV_AT_EPOCH":27598,"BSTAR":0.0018885377,"MEAN_MOTION_DOT":6.72e-6,"MEAN_MOTION_DDOT":0},{"OBJECT_NAME":"ONEWEB-0048","OBJECT_ID":"2020-008Y","EPOCH":"2025-10-14T04:43:09.740928","MEAN_MOTION":13.10377854,"ECCENTRICITY":0.00016433,"INCLINATION":87.8751,"RA_OF_ASC_NODE":85.337,"ARG_OF_PERICENTER":93.4448,"MEAN_ANOMALY":266.6868,"EPHEMERIS_TYPE":0,"CLASSIFICATION_TYPE":"U","NORAD_CAT_ID":45153,"ELEMENT_SET_NO":999,"REV_AT_EPOCH":27559,"BSTAR":0.0018041799,"MEAN_MOTION_DOT":6.43e-6,"MEAN_MOTION_DDOT":0},{"OBJECT_NAME":"ONEWEB-0049","OBJECT_ID":"2020-008Z","EPOCH":"2025-10-14T04:46:45.359040","MEAN_MOTION":13.10372912,"ECCENTRICITY":0.00017793,"INCLINATION":87.8751,"RA_OF_ASC_NODE":85.3277,"ARG_OF_PERICENTER":76.113,"MEAN_ANOMALY":284.0195,"EPHEMERIS_TYPE":0,"CLASSIFICATION_TYPE":"U","NORAD_CAT_ID":45154,"ELEMENT_SET_NO":999,"REV_AT_EPOCH":27581,"BSTAR":0.0014390485,"MEAN_MOTION_DOT":5.15e-6,"MEAN_MOTION_DDOT":0},{"OBJECT_NAME":"ONEWEB-0051","OBJECT_ID":"2020-008AA","EPOCH":"2025-10-14T02:31:00.704064","MEAN_MOTION":13.11413619,"ECCENTRICITY":0.00017223,"INCLINATION":87.8809,"RA_OF_ASC_NODE":70.0788,"ARG_OF_PERICENTER":97.6158,"MEAN_ANOMALY":262.5165,"EPHEMERIS_TYPE":0,"CLASSIFICATION_TYPE":"U","NORAD_CAT_ID":45155,"ELEMENT_SET_NO":999,"REV_AT_EPOCH":27883,"BSTAR":-0.00089566151,"MEAN_MOTION_DOT":-3.05e-6,"MEAN_MOTION_DDOT":0},{"OBJECT_NAME":"ONEWEB-0052","OBJECT_ID":"2020-008AB","EPOCH":"2025-10-14T04:39:34.759584","MEAN_MOTION":13.10374527,"ECCENTRICITY":0.00017619,"INCLINATION":87.8761,"RA_OF_ASC_NODE":85.2831,"ARG_OF_PERICENTER":73.1039,"MEAN_ANOMALY":287.0281,"EPHEMERIS_TYPE":0,"CLASSIFICATION_TYPE":"U","NORAD_CAT_ID":45156,"ELEMENT_SET_NO":999,"REV_AT_EPOCH":27572,"BSTAR":0.0015258161,"MEAN_MOTION_DOT":5.45e-6,"MEAN_MOTION_DDOT":0},{"OBJECT_NAME":"ONEWEB-0053","OBJECT_ID":"2020-008AC","EPOCH":"2025-10-14T06:04:24.506688","MEAN_MOTION":13.10376646,"ECCENTRICITY":0.00012716,"INCLINATION":87.8752,"RA_OF_ASC_NODE":85.3219,"ARG_OF_PERICENTER":95.7004,"MEAN_ANOMALY":264.4268,"EPHEMERIS_TYPE":0,"CLASSIFICATION_TYPE":"U","NORAD_CAT_ID":45157,"ELEMENT_SET_NO":999,"REV_AT_EPOCH":27570,"BSTAR":-0.00061482423,"MEAN_MOTION_DOT":-2.02e-6,"MEAN_MOTION_DDOT":0},{"OBJECT_NAME":"ONEWEB-0054","OBJECT_ID":"2020-008AD","EPOCH":"2025-10-14T05:04:40.692576","MEAN_MOTION":13.10370521,"ECCENTRICITY":0.00016756,"INCLINATION":87.8748,"RA_OF_ASC_NODE":85.3028,"ARG_OF_PERICENTER":91.0971,"MEAN_ANOMALY":269.0348,"EPHEMERIS_TYPE":0,"CLASSIFICATION_TYPE":"U","NORAD_CAT_ID":45158,"ELEMENT_SET_NO":999,"REV_AT_EPOCH":27581,"BSTAR":0.00093441472,"MEAN_MOTION_DOT":3.39e-6,"MEAN_MOTION_DDOT":0},{"OBJECT_NAME":"ONEWEB-0056","OBJECT_ID":"2020-008AE","EPOCH":"2025-10-14T04:37:13.225152","MEAN_MOTION":13.10376952,"ECCENTRICITY":0.00017411,"INCLINATION":87.8752,"RA_OF_ASC_NODE":85.3049,"ARG_OF_PERICENTER":88.1444,"MEAN_ANOMALY":271.9882,"EPHEMERIS_TYPE":0,"CLASSIFICATION_TYPE":"U","NORAD_CAT_ID":45159,"ELEMENT_SET_NO":999,"REV_AT_EPOCH":27596,"BSTAR":0.0012635585,"MEAN_MOTION_DOT":4.54e-6,"MEAN_MOTION_DDOT":0},{"OBJECT_NAME":"ONEWEB-0057","OBJECT_ID":"2020-008AF","EPOCH":"2025-10-14T04:47:57.110784","MEAN_MOTION":13.10373042,"ECCENTRICITY":0.00015302,"INCLINATION":87.8748,"RA_OF_ASC_NODE":85.3165,"ARG_OF_PERICENTER":85.6869,"MEAN_ANOMALY":274.4433,"EPHEMERIS_TYPE":0,"CLASSIFICATION_TYPE":"U","NORAD_CAT_ID":45160,"ELEMENT_SET_NO":999,"REV_AT_EPOCH":27613,"BSTAR":0.0017196978,"MEAN_MOTION_DOT":6.13e-6,"MEAN_MOTION_DDOT":0}]
