ONEWEB-0035             
1 45143U 20008N   25287.13605267  .00000422  00000+0  11719-2 0  9999
2 45143  87.8746  85.3426 0001710  96.6322 263.5000 13.10369495275713
ONEWEB-0036             
1 45144U 20008P   25286.89702394  .00000636  00000+0  17862-2 0  9993
2 45144  87.8756  85.3426 0001564  84.7154 275.4152 13.10372452276115
ONEWEB-0038             
1 45145U 20008Q   25287.11180532  .00003229  00000+0  90739-2 0  9999
2 45145  87.8821  70.0676 0001551 163.4179 196.7000 13.11399114278074
ONEWEB-0039             
1 45146U 20008R   25287.18502441  .00000193  00000+0  51627-3 0  9995
2 45146  87.8760  85.3008 0001141  84.1605 275.9652 13.10376684275945
ONEWEB-0040             
1 45147U 20008S   25287.25472755 -.00000171  00000+0 -52517-3 0  9995
2 45147  87.8754  85.3165 0001551  92.4837 267.6468 13.10375059275653
ONEWEB-0043             
1 45149U 20008U   25287.25637766 -.00000066  00000+0 -22479-3 0  9999
2 45149  87.8751  85.2979 0001369  76.8624 283.2656 13.10377646275973
ONEWEB-0044             
1 45150U 20008V   25287.20826348  .00000441  00000+0  12273-2 0  9997
2 45150  87.8755  85.2985 0001419  84.0859 276.0430 13.10370801276262
ONEWEB-0045             
1 45151U 20008W   25287.10655584 -.00000356  00000+0 -10414-2 0  9991
2 45151  87.8829  70.0455 0001528  97.2638 262.8663 13.11412371278152
ONEWEB-0047             
1 45152U 20008X   25287.20162748  .00000672  00000+0  18885-2 0  9997
2 45152  87.8746  85.3102 0001532  90.4117 269.7186 13.10371592275983
ONEWEB-0048             
1 45153U 20008Y   25287.19664052  .00000643  00000+0  18042-2 0  9994
2 45153  87.8751  85.3370 0001643  93.4448 266.6868 13.10377854275597
ONEWEB-0049             
1 45154U 20008Z   25287.19913610  .00000515  00000+0  14390-2 0  9992
2 45154  87.8751  85.3277 0001779  76.1130 284.0195 13.10372912275812
ONEWEB-0051             
1 45155U 20008AA  25287.10486926 -.00000305  00000+0 -89566-3 0  9996
2 45155  87.8809  70.0788 0001722  97.6158 262.5165 13.11413619278835
ONEWEB-0052             
1 45156U 20008AB  25287.19415231  .00000545  00000+0  15258-2 0  9997
2 45156  87.8761  85.2831 0001761  73.1039 287.0281 13.10374527275729
ONEWEB-0053             
1 45157U 20008AC  25287.25306142 -.00000202  00000+0 -61482-3 0  9998
2 45157  87.8752  85.3219 0001271  95.7004 264.4268 13.10376646275705
ONEWEB-0054             
1 45158U 20008AD  25287.21158209  .00000339  00000+0  93441-3 0  9993
2 45158  87.8748  85.3028 0001675  91.0971 269.0348 13.10370521275817
ONEWEB-0056             
1 45159U 20008AE  25287.19251418  .00000454  00000+0  12636-2 0  9991
2 45159  87.8752  85.3049 0001741  88.1444 271.9882 13.10376952275967
ONEWEB-0057             
1 45160U 20008AF  25287.19996656  .00000613  00000+0  17197-2 0  9997
2 45160  87.8748  85.3165 0001530  85.6869 274.4433 13.10373042276139
